[Satellite]
VERSION=1.1
NAME=TRANSIT 18
NICKNAME=TRANSIT 18
TLE1=1 03133U 68012A   15054.56731690  .00000129  00000-0  18046-3 0  9993
TLE2=2 03133  89.9528 278.8691 0076874  75.0258 342.8728 13.50871316312974
